0 COSMOS 970 DEB
1 10579U 77121W   13282.43563321  .00000043  00000-0  23754-3 0  1446
2 10579 065.6488 041.4372 0068379 278.5437 141.9769 13.32142074739240
0 COSMOS 970 DEB
1 10579U 77121W   13287.46981535  .00000062  00000-0  27607-3 0  1469
2 10579 065.6493 029.8017 0068544 276.7467 164.1310 13.32143040739916
0 COSMOS 970 DEB
1 10579U 77121W   13289.72114938  .00000085  00000-0  32301-3 0  1478
2 10579 065.6492 024.5987 0068640 275.9479 160.7334 13.32143423740212
0 COSMOS 970 DEB
1 10579U 77121W   13292.42323669  .00000061  00000-0  27499-3 0  1489
2 10579 065.6490 018.3534 0068774 274.9942 158.9874 13.32144451740570
0 COSMOS 970 DEB
1 10579U 77121W   13294.53163005  .00000050  00000-0  25205-3 0  1491
2 10579 065.6489 013.4802 0068822 274.2528 190.1003 13.32144996740856
